NORAD_CAT_ID,OBJECT_NAME,OBJECT_TYPE,EPOCH,MEAN_MOTION,ECCENTRICITY,INCLINATION,RA_OF_ASC_NODE,ARG_OF_PERICENTER,MEAN_ANOMALY,BSTAR,MEAN_MOTION_DOT,MEAN_MOTION_DDOT,TLE_LINE0,TLE_LINE1,TLE_LINE2,SEMIMAJOR_AXIS,PERIOD,APOGEE,PERIGEE,DECAYED
54051.0,STARLINK-5195,PAYLOAD,2023-04-15 09:35:03,15.08857528,0.0001123,53.2177,59.7016,95.0368,265.0753,0.00036556,5.538e-05,0.0,0 STARLINK-5195,1 54051U 22136A   23105.39934369  .00005538  00000-0  36556-3 0  9995,2 54051  53.2177  59.7016 0001123  95.0368 265.0753 15.08857528 26924,6917.827,95.436,540.469,538.915,0.0
54051.0,STARLINK-5195,PAYLOAD,2023-04-15 20:42:46,15.08832353,0.0001287,53.217,57.621,82.9345,277.1794,-8.6751e-05,-1.668e-05,0.0,0 STARLINK-5195,1 54051U 22136A   23105.86303349 -.00001668  00000-0 -86751-4 0  9990,2 54051  53.2170  57.6210 0001287  82.9345 277.1794 15.08832353 27470,6917.904,95.438,540.659,538.878,0.0
54051.0,STARLINK-5195,PAYLOAD,2023-04-16 06:15:04,15.08844234,0.0001367,53.2173,55.8353,105.9855,254.1288,0.00053701,8.27e-05,0.0,0 STARLINK-5195,1 54051U 22136A   23106.26047064  .00008270  00000-0  53701-3 0  9996,2 54051  53.2173  55.8353 0001367 105.9855 254.1288 15.08844234 27533,6917.867,95.437,540.678,538.787,0.0
54051.0,STARLINK-5195,PAYLOAD,2023-04-17 02:55:05,15.08847457,0.0001249,53.2183,51.97,99.0458,261.0675,0.00058133,8.978e-05,0.0,0 STARLINK-5195,1 54051U 22136A   23107.12159277  .00008978  00000-0  58133-3 0  9991,2 54051  53.2183  51.9700 0001249  99.0458 261.0675 15.08847457 27669,6917.858,95.437,540.587,538.859,0.0
54051.0,STARLINK-5195,PAYLOAD,2023-04-17 12:27:24,15.08850578,0.0001303,53.2193,50.1875,101.8116,258.3022,0.00040293,6.132e-05,0.0,0 STARLINK-5195,1 54051U 22136A   23107.51903183  .00006132  00000-0  40293-3 0  9995,2 54051  53.2193  50.1875 0001303 101.8116 258.3022 15.08850578 27245,6917.848,95.437,540.614,538.812,0.0
54051.0,STARLINK-5195,PAYLOAD,2023-04-18 04:21:15,15.08850337,0.0001023,53.2191,47.2135,87.2798,272.8311,0.00031077,4.663e-05,0.0,0 STARLINK-5195,1 54051U 22136A   23108.18143123  .00004663  00000-0  31077-3 0  9996,2 54051  53.2191  47.2135 0001023  87.2798 272.8311 15.08850337 27347,6917.849,95.437,540.421,539.006,0.0
54051.0,STARLINK-5195,PAYLOAD,2023-04-18 20:15:07,15.08836232,0.0001061,53.2203,44.2448,97.7908,262.3205,-5.2154e-05,-1.118e-05,0.0,0 STARLINK-5195,1 54051U 22136A   23108.84383717 -.00001118  00000-0 -52154-4 0  9998,2 54051  53.2203  44.2448 0001061  97.7908 262.3205 15.08836232 27924,6917.892,95.438,540.491,539.023,0.0
54051.0,STARLINK-5195,PAYLOAD,2023-04-19 05:47:25,15.0885053,0.0001041,53.2197,42.4558,108.6923,251.4183,0.00026994,4.012e-05,0.0,0 STARLINK-5195,1 54051U 22136A   23109.24127150  .00004012  00000-0  26994-3 0  9996,2 54051  53.2197  42.4558 0001041 108.6923 251.4183 15.08850530 27982,6917.848,95.437,540.433,538.993,0.0
54051.0,STARLINK-5195,PAYLOAD,2023-04-19 12:08:58,15.08845313,8.88e-05,53.2196,41.2655,86.5749,273.5344,0.00017402,2.483e-05,0.0,0 STARLINK-5195,1 54051U 22136A   23109.50623297  .00002483  00000-0  17402-3 0  9992,2 54051  53.2196  41.2655 0000888  86.5749 273.5344 15.08845313 27543,6917.864,95.437,540.343,539.115,0.0
54051.0,STARLINK-5195,PAYLOAD,2023-04-20 05:38:13,15.08842965,7.85e-05,53.2185,37.995,98.3277,261.7805,5.586e-05,6.02e-06,0.0,0 STARLINK-5195,1 54051U 22136A   23110.23487556  .00000602  00000-0  55860-4 0  9992,2 54051  53.2185  37.9950 0000785  98.3277 261.7805 15.08842965 27657,6917.871,95.437,540.279,539.193,0.0
54051.0,STARLINK-5195,PAYLOAD,2023-04-21 03:53:38,15.08826297,7.96e-05,53.2187,33.8323,103.118,256.9901,-8.8522e-05,-1.696e-05,0.0,0 STARLINK-5195,1 54051U 22136A   23111.16225023 -.00001696  00000-0 -88522-4 0  9991,2 54051  53.2187  33.8323 0000796 103.1180 256.9901 15.08826297 28270,6917.922,95.438,540.338,539.237,0.0
54051.0,STARLINK-5195,PAYLOAD,2023-04-21 19:47:29,15.08842814,7.83e-05,53.2164,30.8578,102.7975,257.3104,0.00026746,3.972e-05,0.0,0 STARLINK-5195,1 54051U 22136A   23111.82464535  .00003972  00000-0  26746-3 0  9993,2 54051  53.2164  30.8578 0000783 102.7975 257.3104 15.08842814 27897,6917.872,95.437,540.278,539.195,0.0
54051.0,STARLINK-5195,PAYLOAD,2023-04-22 03:44:24,15.08858559,8.72e-05,53.2171,29.3709,90.3048,269.8044,0.00037488,5.686e-05,0.0,0 STARLINK-5195,1 54051U 22136A   23112.15583809  .00005686  00000-0  37488-3 0  9995,2 54051  53.2171  29.3709 0000872  90.3048 269.8044 15.08858559 28420,6917.824,95.436,540.292,539.085,0.0
54051.0,STARLINK-5195,PAYLOAD,2023-04-22 18:02:52,15.08851254,9.65e-05,53.2179,26.6965,87.8946,272.2157,0.00034952,5.281e-05,0.0,0 STARLINK-5195,1 54051U 22136A   23112.75200212  .00005281  00000-0  34952-3 0  9999,2 54051  53.2179  26.6965 0000965  87.8946 272.2157 15.08851254 28511,6917.846,95.437,540.379,539.043,0.0
54051.0,STARLINK-5195,PAYLOAD,2023-04-23 00:24:25,15.08856165,8.64e-05,53.2174,25.5078,96.1521,263.9569,0.00028595,4.268e-05,0.0,0 STARLINK-5195,1 54051U 22136A   23113.01695712  .00004268  00000-0  28595-3 0  9992,2 54051  53.2174  25.5078 0000864  96.1521 263.9569 15.08856165 28070,6917.831,95.437,540.294,539.098,0.0
54051.0,STARLINK-5195,PAYLOAD,2023-04-23 17:53:39,15.08845902,6.38e-05,53.2178,22.2393,74.1063,285.9999,2.7401e-05,1.49e-06,0.0,0 STARLINK-5195,1 54051U 22136A   23113.74559736  .00000149  00000-0  27401-4 0  9997,2 54051  53.2178  22.2393 0000638  74.1063 285.9999 15.08845902 28184,6917.862,95.437,540.169,539.286,0.0
54051.0,STARLINK-5195,PAYLOAD,2023-04-24 03:25:57,15.08870692,0.000161,53.217,20.4506,113.0376,247.0786,0.00053689,8.274e-05,0.0,0 STARLINK-5195,1 54051U 22136A   23114.14302983  .00008274  00000-0  53689-3 0  9995,2 54051  53.2170  20.4506 0001610 113.0376 247.0786 15.08870692 28247,6917.787,95.436,540.765,538.538,0.0
54051.0,STARLINK-5195,PAYLOAD,2023-04-25 00:05:57,15.0887975,0.0001208,53.2177,16.5846,107.5115,252.6009,0.00069811,0.00010852,0.0,0 STARLINK-5195,1 54051U 22136A   23115.00413480  .00010852  00000-0  69811-3 0  9995,2 54051  53.2177  16.5846 0001208 107.5115 252.6009 15.08879750 28850,6917.759,95.435,540.46,538.788,0.0
54051.0,STARLINK-5195,PAYLOAD,2023-04-25 17:35:08,15.08910643,0.0001058,53.2179,13.3101,83.6588,276.4524,0.00075855,0.00011828,0.0,0 STARLINK-5195,1 54051U 22136A   23115.73274082  .00011828  00000-0  75855-3 0  9997,2 54051  53.2179  13.3101 0001058  83.6588 276.4524 15.08910643 28967,6917.664,95.433,540.261,538.798,0.0
54051.0,STARLINK-5195,PAYLOAD,2023-04-25 23:56:39,15.08933004,0.0001196,53.2191,12.128,82.0077,278.1051,0.0010941,0.00017212,0.0,0 STARLINK-5195,1 54051U 22136A   23115.99768464  .00017212  00000-0  10941-2 0  9994,2 54051  53.2191  12.1280 0001196  82.0077 278.1051 15.08933004 29001,6917.596,95.432,540.288,538.634,0.0
54051.0,STARLINK-5195,PAYLOAD,2023-04-26 17:25:55,15.08838527,0.0001654,53.219,8.8598,309.9099,50.1748,0.00062719,9.707e-05,0.0,0 STARLINK-5195,1 54051U 22136A   23116.72633137  .00009707  00000-0  62719-3 0  9995,2 54051  53.2190   8.8598 0001654 309.9099  50.1748 15.08838527 28631,6917.885,95.438,540.894,538.606,0.0
54051.0,STARLINK-5195,PAYLOAD,2023-04-26 23:47:27,15.08816581,0.0001653,53.2192,7.669,120.0086,240.1071,-0.00099938,-0.00016148,0.0,0 STARLINK-5195,1 54051U 22136A   23116.99129247 -.00016148  00000-0 -99938-3 0  9998,2 54051  53.2192   7.6690 0001653 120.0086 240.1071 15.08816581 29154,6917.952,95.439,540.961,538.673,0.0
54051.0,STARLINK-5195,PAYLOAD,2023-04-27 23:38:16,15.08826758,8.09e-05,53.2193,3.2073,132.9461,227.1599,0.0010947,0.00017171,0.0,0 STARLINK-5195,1 54051U 22136A   23117.98491734  .00017171  00000-0  10947-2 0  9998,2 54051  53.2193   3.2073 0000809 132.9461 227.1599 15.08826758 29307,6917.921,95.438,540.346,539.226,0.0
54051.0,STARLINK-5195,PAYLOAD,2023-04-28 01:13:42,15.08774259,0.0001058,53.218,2.9105,115.5266,244.5836,0.00113,0.00017709,0.0,0 STARLINK-5195,1 54051U 22136A   23118.05119076  .00017709  00000-0  11300-2 0  9994,2 54051  53.2180   2.9105 0001058 115.5266 244.5836 15.08774259 29318,6918.081,95.442,540.678,539.214,0.0
54051.0,STARLINK-5195,PAYLOAD,2023-04-28 09:10:39,15.08786094,8.68e-05,53.217,1.4246,131.1354,228.9713,0.00066788,0.00010342,0.0,0 STARLINK-5195,1 54051U 22136A   23118.38240029  .00010342  00000-0  66788-3 0  9990,2 54051  53.2170   1.4246 0000868 131.1354 228.9713 15.08786094 28888,6918.045,95.441,540.511,539.31,0.0
54051.0,STARLINK-5195,PAYLOAD,2023-04-29 01:04:32,15.08815927,9.57e-05,53.2176,358.4494,115.0793,245.0299,0.0011126,0.00017452,0.0,0 STARLINK-5195,1 54051U 22136A   23119.04481584  .00017452  00000-0  11126-2 0  9991,2 54051  53.2176 358.4494 0000957 115.0793 245.0299 15.08815927 28989,6917.954,95.439,540.481,539.157,0.0
54051.0,STARLINK-5195,PAYLOAD,2023-04-29 18:33:46,15.0885283,8.54e-05,53.2169,355.179,112.3688,247.7395,0.0014141,0.00022297,0.0,0 STARLINK-5195,1 54051U 22136A   23119.77345686  .00022297  00000-0  14141-2 0  9996,2 54051  53.2169 355.1790 0000854 112.3688 247.7395 15.08852830 29579,6917.841,95.437,540.297,539.115,0.0
54051.0,STARLINK-5195,PAYLOAD,2023-04-30 00:55:18,15.08864585,8.66e-05,53.217,353.9895,105.9525,254.1562,0.0014231,0.00022448,0.0,0 STARLINK-5195,1 54051U 22136A   23120.03841362  .00022448  00000-0  14231-2 0  9997,2 54051  53.2170 353.9895 0000866 105.9525 254.1562 15.08864585 29134,6917.805,95.436,540.269,539.071,0.0
54051.0,STARLINK-5195,PAYLOAD,2023-04-30 21:35:19,15.08854387,7.21e-05,53.2171,350.1238,108.8695,251.2375,0.0011535,0.00018125,0.0,0 STARLINK-5195,1 54051U 22136A   23120.89953382  .00018125  00000-0  11535-2 0  9998,2 54051  53.2171 350.1238 0000721 108.8695 251.2375 15.08854387 29741,6917.836,95.437,540.2,539.203,0.0
54051.0,STARLINK-5195,PAYLOAD,2023-05-01 07:07:38,15.08854763,9.44e-05,53.2169,348.3401,70.9324,289.177,0.00090018,0.00014073,0.0,0 STARLINK-5195,1 54051U 22136A   23121.29697320  .00014073  00000-0  90018-3 0  9992,2 54051  53.2169 348.3401 0000944  70.9324 289.1770 15.08854763 29808,6917.835,95.437,540.353,539.047,0.0
